[{"OBJECT_NAME":"STARLINK-35447","OBJECT_ID":"2025-270B","EPOCH":"2026-03-09T22:27:45.076032","MEAN_MOTION":15.27584351,"ECCENTRICITY":0.00020001,"INCLINATION":43.0089,"RA_OF_ASC_NODE":54.7849,"ARG_OF_PERICENTER":257.2499,"MEAN_ANOMALY":102.8129,"EPHEMERIS_TYPE":0,"CLASSIFICATION_TYPE":"U","NORAD_CAT_ID":66589,"ELEMENT_SET_NO":999,"REV_AT_EPOCH":1785,"BSTAR":0.00083719631,"MEAN_MOTION_DOT":0.0002285,"MEAN_MOTION_DDOT":0},{"OBJECT_NAME":"ELECTRON KICK STAGE R\/B","OBJECT_ID":"2024-248B","EPOCH":"2026-03-09T20:49:52.700448","MEAN_MOTION":15.26602112,"ECCENTRICITY":0.00382118,"INCLINATION":97.6105,"RA_OF_ASC_NODE":34.9036,"ARG_OF_PERICENTER":284.4829,"MEAN_ANOMALY":75.2171,"EPHEMERIS_TYPE":0,"CLASSIFICATION_TYPE":"U","NORAD_CAT_ID":62407,"ELEMENT_SET_NO":999,"REV_AT_EPOCH":6727,"BSTAR":0.0006831254,"MEAN_MOTION_DOT":0.00018217,"MEAN_MOTION_DDOT":0}]
